2022-034A               
1 52195U 22034A   22122.57248984  .00186182  00000+0  27804-2 0  9997
2 52195  53.0002 198.7865 0017855  24.2722 335.9124 15.53734716  4657
GLOBAL-18               
1 52196U 22034B   22122.51403793  .00023646  00000+0  49652-3 0  9994
2 52196  53.0031 199.8606 0011435  33.6426 326.5255 15.45202354  4636
GLOBAL-20               
1 52197U 22034C   22122.63272635  .00024943  00000+0  51287-3 0  9995
2 52197  53.0014 199.1702 0011716  25.0312 335.1252 15.45781717  4659
GAOFEN-3 03             
1 52200U 22035A   22122.54615104  .00000061  00000+0  31847-4 0  9999
2 52200  98.4153 131.1335 0001554  88.2600 271.8779 14.42209547  3694
CZ-4C R/B               
1 52201U 22035B   22122.62093592  .00000982  00000+0  15607-3 0  9997
2 52201  98.3984 132.2577 0111180 330.3634  29.1300 14.70582007  3769
COSMOS 2554             
1 52202U 22036A   22122.46127928  .00000126  00000+0  14486-3 0  9996
2 52202  67.1488 290.7745 0006902 264.5539  95.4753 13.96675226  3544
SL-4 R/B                
1 52203U 22036B   22122.54122326  .00123620  74976-5  60755-3 0  9997
2 52203  67.1347 279.1981 0429615  69.0438 295.6064 15.11178217  3779
CHINASAT 6D             
1 52255U 22038A   22120.29984661 -.00000340  00000+0  00000+0 0  9992
2 52255   0.0581 279.2866 0002426 337.1929 199.6710  1.00269711   317
CZ-3B R/B               
1 52256U 22038B   22121.96612392  .00052134  80232-6  37605-2 0  9990
2 52256  28.5186  14.3464 7207191 189.1069 141.7096  2.40345512   403
DAQI 1                  
1 52257U 22039A   22122.47737782  .00000488  00000+0  11686-3 0  9995
2 52257  98.1348  64.0004 0001015 187.3265 172.7909 14.57669539  2438
CZ-4C R/B               
1 52258U 22039B   22122.58783856  .00003783  00000+0  32612-3 0  9994
2 52258  98.1636  65.0512 0139563   7.5163 352.8119 14.90703451  2505
SZ-13 MODULE            
1 52260U 21092C   22122.45477828  .00026907  00000+0  26448-3 0  9993
2 52260  41.4798 136.4759 0008414 163.7724 196.3388 15.65358120  2187
STARLINK-3810           
1 52261U 22041A   22122.58334491  .00041168  00000+0  29645-3 0  9999
2 52261  53.2149 320.8985 0001391  73.1416  39.6777 15.73188208  2366
STARLINK-3761           
1 52262U 22041B   22122.58334491  .00190899  00000+0  13414-2 0  9992
2 52262  53.2148 320.8997 0001359  76.9539  34.6635 15.73068684  2363
STARLINK-3786           
1 52263U 22041C   22122.58334491 -.00013470  00000+0 -91718-4 0  9999
2 52263  53.2150 320.8993 0001230  73.6180  38.6118 15.73197594  2933
STARLINK-3795           
1 52264U 22041D   22122.58334491  .00132629  00000+0  93909-3 0  9999
2 52264  53.2148 320.8958 0001126  87.8092  25.6686 15.73086738  2365
STARLINK-3740           
1 52265U 22041E   22122.58334491  .00024208  00000+0  17645-3 0  9996
2 52265  53.2149 320.8957 0000861  61.5776  52.4273 15.73193177  2365
STARLINK-3739           
1 52266U 22041F   22122.58334491  .00055358  00000+0  39678-3 0  9997
2 52266  53.2150 320.8936 0001147  66.1795  48.3768 15.73168681  2360
STARLINK-3748           
1 52267U 22041G   22122.58334491  .00039013  00000+0  28109-3 0  9995
2 52267  53.2150 320.8930 0001110  75.5703  39.6085 15.73200195  2360
STARLINK-3746           
1 52268U 22041H   22122.58334491  .00018017  00000+0  13235-3 0  9991
2 52268  53.2148 320.8886 0001223  72.4825  44.4421 15.73229197  2949
STARLINK-3791           
1 52269U 22041J   22122.58334491  .00049284  00000+0  35361-3 0  9996
2 52269  53.2149 320.8919 0001151  75.3795  40.3768 15.73193352  2948
STARLINK-3804           
1 52270U 22041K   22122.58334491  .00043347  00000+0  31175-3 0  9991
2 52270  53.2150 320.8858 0001103  70.6000  47.5367 15.73194252  2368
STARLINK-3788           
1 52271U 22041L   22122.58334491  .00046854  00000+0  33674-3 0  9994
2 52271  53.2150 320.8905 0001053  71.4143  44.9605 15.73175746  2366
STARLINK-3781           
1 52272U 22041M   22122.58334491  .00049859  00000+0  35752-3 0  9992
2 52272  53.2151 320.8834 0001107  70.3221  49.0055 15.73202397  2362
STARLINK-3782           
1 52273U 22041N   22122.58334491  .00058787  00000+0  42025-3 0  9994
2 52273  53.2150 320.8876 0001209  73.6287  43.8488 15.73205698  2942
STARLINK-3790           
1 52274U 22041P   22122.58334491 -.00006174  00000+0 -39598-4 0  9992
2 52274  53.2149 320.8794 0001012  65.5310  55.5785 15.73207976  2940
STARLINK-3784           
1 52275U 22041Q   22122.58334491  .00044928  00000+0  32304-3 0  9997
2 52275  53.2150 320.8850 0000926  65.3912  53.3551 15.73183932  2363
STARLINK-3778           
1 52276U 22041R   22122.58334491  .00136969  00000+0  96623-3 0  9999
2 52276  53.2151 320.8768 0001078  66.4105  55.8678 15.73158166  2940
STARLINK-3787           
1 52277U 22041S   22122.58334491  .00053119  00000+0  38115-3 0  9997
2 52277  53.2151 320.8824 0001197  69.1012  50.9108 15.73160049  2940
STARLINK-3780           
1 52278U 22041T   22122.58334491  .00140723  00000+0  99232-3 0  9993
2 52278  53.2150 320.8755 0001067  57.0711  65.8003 15.73154045  2949
STARLINK-3686           
1 52279U 22041U   22122.58334491  .00051391  00000+0  36853-3 0  9996
2 52279  53.2149 320.8806 0001209  64.4494  56.1230 15.73188082  2946
STARLINK-3764           
1 52280U 22041V   22122.58334491  .00172294  00000+0  12115-2 0  9998
2 52280  53.2152 320.8708 0001486  71.1069  53.6856 15.73112923  2366
STARLINK-3779           
1 52281U 22041W   22122.58334491  .00062109  00000+0  44385-3 0  9997
2 52281  53.2149 320.8787 0001314  70.4648  51.2030 15.73190943  2945
STARLINK-3783           
1 52282U 22041X   22122.58334491  .00126984  00000+0  89787-3 0  9995
2 52282  53.2149 320.8692 0001209  70.2968  55.6109 15.73140138  2369
STARLINK-3789           
1 52283U 22041Y   22122.58334491  .00042014  00000+0  30202-3 0  9995
2 52283  53.2150 320.8746 0001021  71.7732  51.6353 15.73219719  2942
STARLINK-3561           
1 52284U 22041Z   22122.58334491  .00171657  00000+0  12074-2 0  9998
2 52284  53.2148 320.8659 0001310  70.0463  57.0591 15.73107706  2370
STARLINK-3775           
1 52285U 22041AA  22122.58334491 -.00011365  00000+0 -76708-4 0  9996
2 52285  53.2151 320.8730 0001277  66.4786  57.7185 15.73187440  2362
STARLINK-3802           
1 52286U 22041AB  22122.58334491  .00036217  00000+0  26110-3 0  9999
2 52286  53.2150 320.8639 0000975  71.9686  56.2981 15.73222786  2365
STARLINK-3822           
1 52287U 22041AC  22122.58334491  .00051383  00000+0  36824-3 0  9994
2 52287  53.2152 320.8710 0001055  63.8429  61.4080 15.73203199  2368
STARLINK-3776           
1 52288U 22041AD  22122.58334491  .00008773  00000+0  66793-4 0  9999
2 52288  53.2151 320.8624 0001202  74.5215  54.3861 15.73222087  2363
STARLINK-3751           
1 52289U 22041AE  22122.58334491  .00059243  00000+0  42390-3 0  9994
2 52289  53.2152 320.8679 0001274  61.7745  64.6868 15.73180825  2364
STARLINK-3772           
1 52290U 22041AF  22122.58334491 -.00047208  00000+0 -33336-3 0  9996
2 52290  53.2147 320.8586 0001225  53.9470  76.7187 15.73232741  2364
STARLINK-3773           
1 52291U 22041AG  22122.58334491  .00028195  00000+0  20447-3 0  9998
2 52291  53.2152 320.8653 0000960  68.6332  59.0314 15.73218356  2363
STARLINK-3753           
1 52292U 22041AH  22122.58334491  .00047825  00000+0  34362-3 0  9991
2 52292  53.2150 320.8561 0001171  62.1158  69.7612 15.73173433  2365
STARLINK-3771           
1 52293U 22041AJ  22122.58334491  .00158365  00000+0  11151-2 0  9994
2 52293  53.2153 320.8618 0001096  67.3023  62.2107 15.73127162  2361
STARLINK-3777           
1 52294U 22041AK  22122.58334491  .00143685  00000+0  10132-2 0  9992
2 52294  53.2151 320.8553 0001234  71.2406  61.1500 15.73143636  2360
STARLINK-3765           
1 52295U 22041AL  22122.58334491  .00043374  00000+0  31178-3 0  9991
2 52295  53.2150 320.8603 0001457  64.1123  65.9844 15.73205915  2362
STARLINK-3766           
1 52296U 22041AM  22122.58334491  .00185564  00000+0  13018-2 0  9992
2 52296  53.2152 320.8516 0001187  67.5131  66.7221 15.73123817  2362
STARLINK-3758           
1 52297U 22041AN  22122.58334491  .00054195  00000+0  38915-3 0  9992
2 52297  53.2151 320.8580 0001517  69.8950  61.3751 15.73134716  2363
STARLINK-3760           
1 52298U 22041AP  22122.58334491  .00009765  00000+0  73762-4 0  9996
2 52298  53.2152 320.8500 0001132  63.2533  71.5158 15.73248715  2364
STARLINK-3759           
1 52299U 22041AQ  22122.58334491  .00024045  00000+0  17547-3 0  9993
2 52299  53.2153 320.8526 0001049  59.9057  73.8447 15.73170160  2368
STARLINK-3769           
1 52300U 22041AR  22122.58334491  .00107990  00000+0  76690-3 0  9991
2 52300  53.2153 320.8474 0001198  69.7537  66.3174 15.73111168  2367
STARLINK-3768           
1 52301U 22041AS  22122.58334491  .00140219  00000+0  98989-3 0  9998
2 52301  53.2152 320.8537 0001132  61.1714  71.9208 15.73129201  2365
STARLINK-3564           
1 52302U 22041AT  22122.58334491 -.00011266  00000+0 -75947-4 0  9990
2 52302  53.2151 320.8437 0001207  64.6246  73.1912 15.73205246  2376
STARLINK-3742           
1 52303U 22041AU  22122.58334491 -.00016823  00000+0 -11549-3 0  9992
2 52303  53.2151 320.8491 0001290  58.9639  76.4684 15.73239676  2366
STARLINK-3744           
1 52304U 22041AV  22122.58334491  .00178195  00000+0  12537-2 0  9999
2 52304  53.2151 320.8422 0001132  64.0259  74.3961 15.73080438  2367
STARLINK-3724           
1 52305U 22041AW  22122.58334491  .00210021  00000+0  14726-2 0  9997
2 52305  53.2153 320.8464 0001330  71.7075  64.9595 15.73058339  2360
STARLINK-3747           
1 52306U 22041AX  22122.58334491  .00138995  00000+0  98235-3 0  9995
2 52306  53.2150 320.8412 0001459  70.9696  68.0246 15.73107062  2369
STARLINK-3755           
1 52307U 22041AY  22122.58334491  .00156050  00000+0  11025-2 0  9999
2 52307  53.2154 320.8453 0001433  70.5353  66.7557 15.73056134  2360
